OBJECT_NAME,OBJECT_ID,EPOCH,MEAN_MOTION,ECCENTRICITY,INCLINATION,RA_OF_ASC_NODE,ARG_OF_PERICENTER,MEAN_ANOMALY,EPHEMERIS_TYPE,CLASSIFICATION_TYPE,NORAD_CAT_ID,ELEMENT_SET_NO,REV_AT_EPOCH,BSTAR,MEAN_MOTION_DOT,MEAN_MOTION_DDOT
STARLINK-11247 [DTC],2024-152A,2026-06-07T08:30:27.368352,15.69694396,.0002252,53.1606,34.5625,89.4557,270.6718,0,U,60720,999,10291,-.55433E-5,-.1261E-4,0
STARLINK-11259 [DTC],2024-152B,2026-06-06T09:28:05.702016,15.69714407,.00013582,53.1603,39.2328,112.2085,247.9077,0,U,60721,999,10276,.25673997E-4,.2523E-4,0
STARLINK-11188 [DTC],2024-152C,2026-06-06T09:21:01.574784,15.69717514,.0001085,53.1593,39.1998,107.4546,252.6591,0,U,60722,999,10288,.16006847E-4,.1351E-4,0
STARLINK-11272 [DTC],2024-152D,2026-06-06T04:31:50.598912,15.69728384,.00006726,53.1567,40.0805,62.8919,297.2167,0,U,60723,999,10273,.95986497E-4,.11065E-3,0
STARLINK-11261 [DTC],2024-152E,2026-06-06T09:13:58.101600,15.69725030,.00012008,53.1574,39.1679,95.0762,265.0393,0,U,60724,999,10276,.41418759E-4,.4435E-4,0
STARLINK-11263 [DTC],2024-152F,2026-06-06T08:59:49.734816,15.69716650,.00011354,53.1585,39.1068,123.0732,237.0395,0,U,60725,999,10276,.33610242E-4,.3486E-4,0
STARLINK-11235 [DTC],2024-152G,2026-06-06T08:52:46.402464,15.69718426,.00010988,53.1596,39.0729,90.3385,269.7758,0,U,60726,999,10289,.13570128E-4,.1056E-4,0
STARLINK-11080 [DTC],2024-152H,2026-06-07T09:12:40.589568,15.69702945,.0000986,53.1578,34.0173,85.8301,274.2829,0,U,60727,999,10305,-.11095E-5,-.723E-5,0
STARLINK-11249 [DTC],2024-152J,2026-06-07T09:05:36.703392,15.69703179,.0000825,53.1583,33.9827,92.0238,268.0874,0,U,60728,999,10292,-.11675E-5,-.729E-5,0
STARLINK-11146 [DTC],2024-152K,2026-06-07T08:58:32.641824,15.69704034,.0000689,53.1562,33.9403,78.9812,281.1283,0,U,60729,999,10305,-.21487E-5,-.848E-5,0
STARLINK-11255 [DTC],2024-152L,2026-06-07T08:51:28.325376,15.69710585,.0001137,53.1597,33.9189,78.3225,281.7920,0,U,60730,999,10293,.54748E-5,.75E-6,0
STARLINK-11254 [DTC],2024-152M,2026-06-05T21:35:40.693920,15.69712350,.0001138,53.1588,41.1068,58.6063,301.5066,0,U,60731,999,10270,.88356E-5,.482E-5,0
STARLINK-11266 [DTC],2024-152N,2026-06-07T08:37:21.142272,15.69704752,.0001152,53.1580,33.8384,56.1551,303.9577,0,U,60732,999,10292,.39275E-7,-.584E-5,0
STARLINK-32253,2024-152P,2026-06-07T10:39:02.062368,15.30192881,.0001536,53.1603,211.4414,58.3479,301.7671,0,U,60733,999,10054,-.20936E-4,-.979E-5,0
STARLINK-32179,2024-152Q,2026-06-07T10:05:46.161024,15.30189562,.0000985,53.1588,212.0249,64.9752,295.1350,0,U,60734,999,10045,-.14866E-4,-.799E-5,0
STARLINK-32289,2024-152T,2026-06-07T09:47:31.583616,15.30198262,.0001397,53.1590,211.9452,68.6321,291.4828,0,U,60737,999,10058,-.96809E-4,-.3225E-4,0
STARLINK-32304,2024-152U,2026-06-07T09:42:58.150080,15.30185439,.0000775,53.1580,211.9235,86.1392,273.9697,0,U,60738,999,10058,-.28691E-4,-.1208E-4,0
STARLINK-32235,2024-152V,2026-06-07T11:12:28.101024,15.30183279,.0001191,53.1589,211.6000,94.1071,266.0066,0,U,60739,999,10054,.98392E-5,-.68E-6,0
STARLINK-32315,2024-152W,2026-06-06T11:37:05.865024,15.30194393,.000107,53.1588,216.1286,97.1704,262.9418,0,U,60740,999,10031,.12518E-4,.12E-6,0
STARLINK-11242 [DTC],2024-154A,2026-06-06T10:01:28.717536,15.69729781,.00010198,53.1590,53.6156,79.3728,280.7405,0,U,60903,999,10245,.28861478E-4,.2912E-4,0
STARLINK-11256 [DTC],2024-154B,2026-06-06T09:54:25.482816,15.69720002,.00012024,53.1606,53.5796,90.0318,270.0838,0,U,60904,999,10245,.16823893E-4,.1451E-4,0
STARLINK-11159 [DTC],2024-154C,2026-06-07T10:07:24.716640,15.69701425,.0000401,53.1575,49.2296,139.8340,220.2708,0,U,60905,999,10260,-.33784E-6,-.628E-5,0
STARLINK-11264 [DTC],2024-154D,2026-06-07T10:00:20.452896,15.69705593,.0000169,53.1567,49.1926,33.4330,326.6699,0,U,60906,999,10260,.3727E-5,-.136E-5,0
STARLINK-11226 [DTC],2024-154E,2026-06-07T09:53:16.712736,15.69703924,.0000269,53.1593,49.1603,309.9974,50.1021,0,U,60907,999,10260,.20062E-5,-.344E-5,0
STARLINK-11229 [DTC],2024-154F,2026-06-05T21:05:47.796288,15.69712069,.000102,53.1572,56.6578,56.9322,303.1793,0,U,60908,999,10236,.21183E-4,.1979E-4,0
STARLINK-11265 [DTC],2024-154G,2026-06-07T10:14:28.067136,15.69702366,.0001283,53.1585,49.2607,195.5196,164.5783,0,U,60909,999,10260,-.22946E-6,-.617E-5,0
STARLINK-11250 [DTC],2024-154H,2026-06-05T20:58:43.866912,15.69709197,.00010427,53.1595,56.6307,116.1698,243.9427,0,U,60910,999,10236,.4312874E-5,-.66E-6,0
STARLINK-11190 [DTC],2024-154J,2026-06-07T09:32:06.815040,15.69692588,.0003018,53.1588,49.0653,89.6929,270.4434,0,U,60911,999,10259,-.11216E-4,-.1949E-4,0
STARLINK-11225 [DTC],2024-154K,2026-06-06T10:29:44.699424,15.69718082,.00009146,53.1584,53.7359,94.2190,265.8932,0,U,60912,999,10244,.26217806E-4,.259E-4,0
STARLINK-11273 [DTC],2024-154L,2026-06-06T10:22:40.943712,15.69716128,.00013859,53.1584,53.7019,82.5672,277.5504,0,U,60913,999,10244,.12235765E-4,.894E-5,0
STARLINK-11271 [DTC],2024-154N,2026-06-07T04:28:46.164288,15.69712609,.0001373,53.1592,49.8730,86.1063,274.0111,0,U,60915,999,10256,.44418E-5,-.51E-6,0
STARLINK-32371,2024-154P,2026-06-07T11:28:48.517248,15.31701444,.0000877,53.1603,226.6680,94.4907,265.6194,0,U,60916,999,10008,-.71763E-4,-.2591E-4,0
STARLINK-32369,2024-154Q,2026-06-06T11:46:15.566016,15.30184759,.00012863,53.1601,231.1700,83.3019,276.8128,0,U,60917,999,9993,.10912171E-3,.2872E-4,0
STARLINK-32317,2024-154R,2026-06-07T10:46:51.643776,15.30185292,.0000985,53.1596,227.1992,55.6879,304.4215,0,U,60918,999,10007,-.42139E-4,-.1606E-4,0
STARLINK-32367,2024-154S,2026-06-07T11:00:20.617344,15.30204480,.0000992,53.1592,226.5462,73.6473,286.4637,0,U,60919,999,10008,.15481E-4,.1E-5,0
STARLINK-32345,2024-154T,2026-06-07T10:48:22.464000,15.30190241,.0001466,53.1599,227.2037,73.1972,286.9189,0,U,60920,999,10008,-.2611E-4,-.1132E-4,0
STARLINK-32356,2024-154U,2026-06-07T11:15:22.674816,15.31688900,.000095,53.1602,226.6073,78.9272,281.1836,0,U,60921,999,10009,-.5866E-4,-.2184E-4,0
STARLINK-32274,2024-154V,2026-06-07T00:56:42.630720,15.30193492,.0001029,53.1595,228.8991,82.2435,277.8682,0,U,60922,999,10002,.20203E-4,.239E-5,0
STARLINK-32373,2024-154W,2026-06-06T12:37:56.144928,15.30210198,.0001242,53.1595,231.3935,59.3575,300.7548,0,U,60923,999,9994,.33234E-5,-.261E-5,0
STARLINK-11239 [DTC],2024-155A,2026-06-06T23:50:18.879648,15.69696508,.0000868,53.1579,261.3798,101.5697,258.5419,0,U,60924,999,10242,-.18889E-4,-.2874E-4,0
STARLINK-11245 [DTC],2024-155B,2026-06-06T14:19:00.297408,15.69716423,.00012572,53.1577,263.1666,58.5975,301.5166,0,U,60925,999,10236,.30112898E-4,.3062E-4,0
STARLINK-11244 [DTC],2024-155C,2026-06-06T14:04:51.693024,15.69721375,.00011736,53.1585,263.0929,47.2908,312.8208,0,U,60926,999,10241,.13793794E-4,.1083E-4,0
STARLINK-11243 [DTC],2024-155D,2026-06-06T14:11:57.283008,15.69708192,.0001128,53.1592,263.1289,77.0890,283.0254,0,U,60927,999,10236,-.52094E-5,-.122E-4,0
STARLINK-11238 [DTC],2024-155E,2026-06-07T11:21:21.354912,15.69759436,.0001016,53.1566,258.6660,153.8079,206.2990,0,U,60928,999,10255,-.23511E-3,-.2903E-3,0
STARLINK-11240 [DTC],2024-155F,2026-06-07T08:10:58.505088,15.69697107,.0001271,53.1583,259.2634,101.5428,258.5733,0,U,60929,999,10248,-.99223E-5,-.179E-4,0
STARLINK-11251 [DTC],2024-155G,2026-06-07T00:25:29.732736,15.69689298,.0001074,53.1591,260.8038,89.2836,270.8305,0,U,60930,999,10243,-.35446E-5,-.1017E-4,0
STARLINK-11204 [DTC],2024-155H,2026-06-07T00:18:25.488864,15.69694891,.0001051,53.1586,260.7730,76.9678,283.1457,0,U,60931,999,10243,.11803E-5,-.445E-5,0
STARLINK-11246 [DTC],2024-155J,2026-06-07T00:11:21.750432,15.69694250,.0000818,53.1579,260.7373,87.4751,272.6360,0,U,60932,999,10243,-.62678E-5,-.1347E-4,0
STARLINK-11207 [DTC],2024-155K,2026-06-06T13:22:29.282304,15.69724160,.0001153,53.1595,262.9020,81.3994,278.7154,0,U,60933,999,10236,.46042E-4,.4996E-4,0
STARLINK-11237 [DTC],2024-155L,2026-06-06T23:57:13.362912,15.69695459,.000085,53.1568,260.6695,91.1306,268.9809,0,U,60934,999,10244,.36382E-4,.3819E-4,0
STARLINK-11253 [DTC],2024-155M,2026-06-06T23:43:14.867328,15.69708058,.0000791,53.1570,261.3354,72.2223,287.8881,0,U,60935,999,10242,-.73434E-5,-.1477E-4,0
STARLINK-11241 [DTC],2024-155N,2026-06-06T23:36:10.632960,15.69701967,.00015,53.1568,261.3000,36.0115,324.1003,0,U,60936,999,10242,.23007E-5,-.311E-5,0
STARLINK-32259,2024-155P,2026-06-07T11:10:29.565408,15.30185637,.000108,53.1595,72.8356,97.6299,262.4824,0,U,60937,999,10008,.37217E-5,-.249E-5,0
STARLINK-32262,2024-155Q,2026-06-07T12:00:04.000320,15.83378854,.0003383,53.1388,29.0211,86.0902,221.4595,0,U,60938,999,603,.1059E-2,.240882E-2,0
STARLINK-32258,2024-155R,2026-06-05T16:00:01.999584,15.34339326,.00008835,53.1603,80.7848,101.8131,268.9984,0,U,60939,999,587,.25553729E-2,.86796E-3,0
STARLINK-32251,2024-155S,2026-06-07T01:20:17.483424,15.34390903,.0001544,53.1613,74.5419,77.5694,282.5482,0,U,60940,999,10002,-.1297E-4,-.814E-5,0
STARLINK-32224,2024-155T,2026-06-07T10:55:16.262112,15.30196061,.0001256,53.1606,72.7669,86.1267,273.9877,0,U,60941,999,10009,.15723E-4,.106E-5,0
STARLINK-32184,2024-155U,2026-06-07T11:49:35.073120,15.34401474,.0000514,53.1619,72.3010,32.7570,327.3465,0,U,60942,999,10004,.41002E-3,.13503E-3,0
STARLINK-32288,2024-155V,2026-06-07T00:56:02.301792,15.34393780,.0001296,53.1614,74.4363,78.5255,281.5893,0,U,60943,999,9997,.17565E-4,.217E-5,0
STARLINK-32276,2024-155W,2026-06-07T00:16:38.993088,15.30181730,.0001208,53.1616,74.9720,103.8780,256.2356,0,U,60944,999,10006,.12896E-3,.346E-4,0
STARLINK-11289 [DTC],2024-158B,2026-06-07T09:00:19.428768,15.69691391,.0001186,53.1575,198.9375,48.7596,311.3523,0,U,60991,999,10168,-.16157E-4,-.2544E-4,0
STARLINK-11282 [DTC],2024-158C,2026-06-05T09:59:17.495808,15.69708552,.0001068,53.1589,208.7624,113.3542,246.7588,0,U,60992,999,10137,.3789093E-5,-.13E-5,0
STARLINK-11283 [DTC],2024-158D,2026-06-06T09:43:59.138976,15.69717062,.00011888,53.1576,204.2889,60.6997,299.4139,0,U,60993,999,10152,.12108079E-4,.879E-5,0
